CCSDS_OMM_VERS = 2.0
CREATION_DATE  = 
ORIGINATOR     = 

OBJECT_NAME    = SL-16 R/B
OBJECT_ID      = 1998-043G
CENTER_NAME    = EARTH
REF_FRAME      = TEME
TIME_SYSTEM    = UTC
MEAN_ELEMENT_THEORY = SGP/SGP4

EPOCH          = 2026-01-10T20:18:55.157472
MEAN_MOTION    = 14.26033849
ECCENTRICITY   = .00098212
INCLINATION    = 98.8165
RA_OF_ASC_NODE = 323.8335
ARG_OF_PERICENTER = 176.1970
MEAN_ANOMALY   = 183.9285

EPHEMERIS_TYPE = 0
CLASSIFICATION_TYPE = U
NORAD_CAT_ID   = 25400
ELEMENT_SET_NO = 999
REV_AT_EPOCH   = 43074
BSTAR          = .52123101E-4
MEAN_MOTION_DOT = .79E-6
MEAN_MOTION_DDOT = 0

CCSDS_OMM_VERS = 2.0
CREATION_DATE  = 
ORIGINATOR     = 

OBJECT_NAME    = SL-16 R/B
OBJECT_ID      = 1998-045B
CENTER_NAME    = EARTH
REF_FRAME      = TEME
TIME_SYSTEM    = UTC
MEAN_ELEMENT_THEORY = SGP/SGP4

EPOCH          = 2026-01-10T12:18:11.328768
MEAN_MOTION    = 14.16180247
ECCENTRICITY   = .00053273
INCLINATION    = 71.0122
RA_OF_ASC_NODE = 303.9179
ARG_OF_PERICENTER = 125.3839
MEAN_ANOMALY   = 234.7783

EPHEMERIS_TYPE = 0
CLASSIFICATION_TYPE = U
NORAD_CAT_ID   = 25407
ELEMENT_SET_NO = 999
REV_AT_EPOCH   = 41886
BSTAR          = -.46226164E-4
MEAN_MOTION_DOT = -.139E-5
MEAN_MOTION_DDOT = 0

CCSDS_OMM_VERS = 2.0
CREATION_DATE  = 
ORIGINATOR     = 

OBJECT_NAME    = ISS (ZARYA)
OBJECT_ID      = 1998-067A
CENTER_NAME    = EARTH
REF_FRAME      = TEME
TIME_SYSTEM    = UTC
MEAN_ELEMENT_THEORY = SGP/SGP4

EPOCH          = 2026-01-10T21:16:59.692800
MEAN_MOTION    = 15.49222658
ECCENTRICITY   = .0007686
INCLINATION    = 51.6334
RA_OF_ASC_NODE = 358.1732
ARG_OF_PERICENTER = 4.2400
MEAN_ANOMALY   = 355.8652

EPHEMERIS_TYPE = 0
CLASSIFICATION_TYPE = U
NORAD_CAT_ID   = 25544
ELEMENT_SET_NO = 999
REV_AT_EPOCH   = 54737
BSTAR          = .18059147E-3
MEAN_MOTION_DOT = .9595E-4
MEAN_MOTION_DDOT = 0

CCSDS_OMM_VERS = 2.0
CREATION_DATE  = 
ORIGINATOR     = 

OBJECT_NAME    = CZ-4B R/B
OBJECT_ID      = 1999-025C
CENTER_NAME    = EARTH
REF_FRAME      = TEME
TIME_SYSTEM    = UTC
MEAN_ELEMENT_THEORY = SGP/SGP4

EPOCH          = 2026-01-10T18:09:48.280320
MEAN_MOTION    = 14.18251676
ECCENTRICITY   = .00376778
INCLINATION    = 98.6730
RA_OF_ASC_NODE = 56.3820
ARG_OF_PERICENTER = 150.2461
MEAN_ANOMALY   = 331.4340

EPHEMERIS_TYPE = 0
CLASSIFICATION_TYPE = U
NORAD_CAT_ID   = 25732
ELEMENT_SET_NO = 999
REV_AT_EPOCH   = 37995
BSTAR          = .53937148E-4
MEAN_MOTION_DOT = .69E-6
MEAN_MOTION_DDOT = 0

CCSDS_OMM_VERS = 2.0
CREATION_DATE  = 
ORIGINATOR     = 

OBJECT_NAME    = OKEAN-O
OBJECT_ID      = 1999-039A
CENTER_NAME    = EARTH
REF_FRAME      = TEME
TIME_SYSTEM    = UTC
MEAN_ELEMENT_THEORY = SGP/SGP4

EPOCH          = 2026-01-10T18:57:34.159680
MEAN_MOTION    = 14.80221653
ECCENTRICITY   = .00016072
INCLINATION    = 97.9559
RA_OF_ASC_NODE = 71.2349
ARG_OF_PERICENTER = 110.5343
MEAN_ANOMALY   = 249.6041

EPHEMERIS_TYPE = 0
CLASSIFICATION_TYPE = U
NORAD_CAT_ID   = 25860
ELEMENT_SET_NO = 999
REV_AT_EPOCH   = 42582
BSTAR          = .11350397E-3
MEAN_MOTION_DOT = .811E-5
MEAN_MOTION_DDOT = 0

CCSDS_OMM_VERS = 2.0
CREATION_DATE  = 
ORIGINATOR     = 

OBJECT_NAME    = SL-16 R/B
OBJECT_ID      = 1999-039B
CENTER_NAME    = EARTH
REF_FRAME      = TEME
TIME_SYSTEM    = UTC
MEAN_ELEMENT_THEORY = SGP/SGP4

EPOCH          = 2026-01-10T21:24:54.955872
MEAN_MOTION    = 14.81637041
ECCENTRICITY   = .00161619
INCLINATION    = 98.0083
RA_OF_ASC_NODE = 70.0395
ARG_OF_PERICENTER = 85.7079
MEAN_ANOMALY   = 274.5980

EPHEMERIS_TYPE = 0
CLASSIFICATION_TYPE = U
NORAD_CAT_ID   = 25861
ELEMENT_SET_NO = 999
REV_AT_EPOCH   = 42830
BSTAR          = .8413325E-4
MEAN_MOTION_DOT = .609E-5
MEAN_MOTION_DDOT = 0

CCSDS_OMM_VERS = 2.0
CREATION_DATE  = 
ORIGINATOR     = 

OBJECT_NAME    = DELTA 2 R/B
OBJECT_ID      = 1999-041E
CENTER_NAME    = EARTH
REF_FRAME      = TEME
TIME_SYSTEM    = UTC
MEAN_ELEMENT_THEORY = SGP/SGP4

EPOCH          = 2026-01-10T19:33:04.688640
MEAN_MOTION    = 14.11528584
ECCENTRICITY   = .05037918
INCLINATION    = 51.7600
RA_OF_ASC_NODE = 172.3731
ARG_OF_PERICENTER = 177.4665
MEAN_ANOMALY   = 182.9001

EPHEMERIS_TYPE = 0
CLASSIFICATION_TYPE = U
NORAD_CAT_ID   = 25876
ELEMENT_SET_NO = 999
REV_AT_EPOCH   = 35485
BSTAR          = .52948048E-3
MEAN_MOTION_DOT = .3059E-4
MEAN_MOTION_DDOT = 0

CCSDS_OMM_VERS = 2.0
CREATION_DATE  = 
ORIGINATOR     = 

OBJECT_NAME    = HELIOS 1B
OBJECT_ID      = 1999-064A
CENTER_NAME    = EARTH
REF_FRAME      = TEME
TIME_SYSTEM    = UTC
MEAN_ELEMENT_THEORY = SGP/SGP4

EPOCH          = 2026-01-11T00:00:56.873664
MEAN_MOTION    = 14.87427173
ECCENTRICITY   = .00004091
INCLINATION    = 98.1744
RA_OF_ASC_NODE = 271.5357
ARG_OF_PERICENTER = 118.3808
MEAN_ANOMALY   = 241.7449

EPHEMERIS_TYPE = 0
CLASSIFICATION_TYPE = U
NORAD_CAT_ID   = 25977
ELEMENT_SET_NO = 999
REV_AT_EPOCH   = 67668
BSTAR          = .25473508E-3
MEAN_MOTION_DOT = .2247E-4
MEAN_MOTION_DDOT = 0

CCSDS_OMM_VERS = 2.0
CREATION_DATE  = 
ORIGINATOR     = 

OBJECT_NAME    = TERRA
OBJECT_ID      = 1999-068A
CENTER_NAME    = EARTH
REF_FRAME      = TEME
TIME_SYSTEM    = UTC
MEAN_ELEMENT_THEORY = SGP/SGP4

EPOCH          = 2026-01-10T22:22:47.862624
MEAN_MOTION    = 14.60941059
ECCENTRICITY   = .00026333
INCLINATION    = 97.9707
RA_OF_ASC_NODE = 66.5396
ARG_OF_PERICENTER = 33.7151
MEAN_ANOMALY   = 139.0593

EPHEMERIS_TYPE = 0
CLASSIFICATION_TYPE = U
NORAD_CAT_ID   = 25994
ELEMENT_SET_NO = 999
REV_AT_EPOCH   = 38664
BSTAR          = .10601687E-3
MEAN_MOTION_DOT = .475E-5
MEAN_MOTION_DDOT = 0

CCSDS_OMM_VERS = 2.0
CREATION_DATE  = 
ORIGINATOR     = 

OBJECT_NAME    = SL-16 R/B
OBJECT_ID      = 2000-006B
CENTER_NAME    = EARTH
REF_FRAME      = TEME
TIME_SYSTEM    = UTC
MEAN_ELEMENT_THEORY = SGP/SGP4

EPOCH          = 2026-01-10T20:47:15.913824
MEAN_MOTION    = 14.15815328
ECCENTRICITY   = .00190074
INCLINATION    = 71.0009
RA_OF_ASC_NODE = 219.4170
ARG_OF_PERICENTER = 269.7193
MEAN_ANOMALY   = 90.1752

EPHEMERIS_TYPE = 0
CLASSIFICATION_TYPE = U
NORAD_CAT_ID   = 26070
ELEMENT_SET_NO = 999
REV_AT_EPOCH   = 34037
BSTAR          = -.73492992E-4
MEAN_MOTION_DOT = -.193E-5
MEAN_MOTION_DDOT = 0

CCSDS_OMM_VERS = 2.0
CREATION_DATE  = 
ORIGINATOR     = 

OBJECT_NAME    = TITAN 4B R/B
OBJECT_ID      = 2000-047B
CENTER_NAME    = EARTH
REF_FRAME      = TEME
TIME_SYSTEM    = UTC
MEAN_ELEMENT_THEORY = SGP/SGP4

EPOCH          = 2026-01-10T21:49:34.733856
MEAN_MOTION    = 15.09025920
ECCENTRICITY   = .00371919
INCLINATION    = 67.9879
RA_OF_ASC_NODE = 202.9178
ARG_OF_PERICENTER = 108.2578
MEAN_ANOMALY   = 252.2624

EPHEMERIS_TYPE = 0
CLASSIFICATION_TYPE = U
NORAD_CAT_ID   = 26474
ELEMENT_SET_NO = 999
REV_AT_EPOCH   = 38419
BSTAR          = .2404467E-3
MEAN_MOTION_DOT = .3739E-4
MEAN_MOTION_DDOT = 0

CCSDS_OMM_VERS = 2.0
CREATION_DATE  = 
ORIGINATOR     = 

OBJECT_NAME    = ENVISAT
OBJECT_ID      = 2002-009A
CENTER_NAME    = EARTH
REF_FRAME      = TEME
TIME_SYSTEM    = UTC
MEAN_ELEMENT_THEORY = SGP/SGP4

EPOCH          = 2026-01-10T21:39:11.782080
MEAN_MOTION    = 14.39012187
ECCENTRICITY   = .00011269
INCLINATION    = 98.3638
RA_OF_ASC_NODE = 325.9097
ARG_OF_PERICENTER = 91.4426
MEAN_ANOMALY   = 337.8254

EPHEMERIS_TYPE = 0
CLASSIFICATION_TYPE = U
NORAD_CAT_ID   = 27386
ELEMENT_SET_NO = 999
REV_AT_EPOCH   = 25086
BSTAR          = .5920905E-4
MEAN_MOTION_DOT = .14E-5
MEAN_MOTION_DDOT = 0

