SL-16 R/B               
1 25400U 98043G   26010.84647173  .00000079  00000+0  52123-4 0  9996
2 25400  98.8165 323.8335 0009821 176.1970 183.9285 14.26033849430742
SL-16 R/B               
1 25407U 98045B   26010.51263112 -.00000139  00000+0 -46226-4 0  9992
2 25407  71.0122 303.9179 0005327 125.3839 234.7783 14.16180247418868
ISS (ZARYA)             
1 25544U 98067A   26010.88680200  .00009595  00000+0  18059-3 0  9994
2 25544  51.6334 358.1732 0007686   4.2400 355.8652 15.49222658547374
CZ-4B R/B               
1 25732U 99025C   26010.75680880  .00000069  00000+0  53937-4 0  9990
2 25732  98.6730  56.3820 0037677 150.2461 331.4340 14.18251676379959
OKEAN-O                 
1 25860U 99039A   26010.78997870  .00000811  00000+0  11350-3 0  9997
2 25860  97.9559  71.2349 0001607 110.5343 249.6041 14.80221653425823
SL-16 R/B               
1 25861U 99039B   26010.89230273  .00000609  00000+0  84133-4 0  9992
2 25861  98.0083  70.0395 0016161  85.7079 274.5980 14.81637041428304
DELTA 2 R/B             
1 25876U 99041E   26010.81463760  .00003059  00000+0  52948-3 0  9992
2 25876  51.7600 172.3731 0503791 177.4665 182.9001 14.11528584354859
HELIOS 1B               
1 25977U 99064A   26011.00065826  .00002247  00000+0  25474-3 0  9994
2 25977  98.1744 271.5357 0000409 118.3808 241.7449 14.87427173676685
TERRA                   
1 25994U 99068A   26010.93249841  .00000475  00000+0  10602-3 0  9997
2 25994  97.9707  66.5396 0002633  33.7151 139.0593 14.60941059386645
SL-16 R/B               
1 26070U 00006B   26010.86615641 -.00000193  00000+0 -73493-4 0  9991
2 26070  71.0009 219.4170 0019007 269.7193  90.1752 14.15815328340371
TITAN 4B R/B            
1 26474U 00047B   26010.90942979  .00003739  00000+0  24045-3 0  9991
2 26474  67.9879 202.9178 0037191 108.2578 252.2624 15.09025920384193
ENVISAT                 
1 27386U 02009A   26010.90221970  .00000140  00000+0  59209-4 0  9999
2 27386  98.3638 325.9097 0001126  91.4426 337.8254 14.39012187250865
